{
  "type": "FeatureCollection",
  "features": [
    {
      "type": "Feature",
      "properties": {
        "norad_id": 15362,
        "name": "NOVA 3",
        "group": "nnss",
        "lat": -14.837639282595527,
        "lon": -99.39025796956552,
        "alt_km": 1185.8134217644383,
        "timestamp": "2025-12-21T20:41:08.230488+00:00",
        "meta_object_name": "NOVA 3",
        "meta_object_id": "1984-110A",
        "meta_epoch": "2025-12-21T12:29:45.710880",
        "meta_mean_motion": 13.23045611,
        "meta_eccentricity": 0.00299804,
        "meta_inclination": 90.1221,
        "meta_ra_of_asc_node": 80.6381,
        "meta_arg_of_pericenter": 306.6925,
        "meta_mean_anomaly": 64.0147,
        "meta_ephemeris_type": 0,
        "meta_classification_type": "U",
        "meta_norad_cat_id": 15362,
        "meta_element_set_no": 999,
        "meta_rev_at_epoch": 98815,
        "meta_bstar": 0.00017524755,
        "meta_mean_motion_dot": 8.2e-07,
        "meta_mean_motion_ddot": 0,
        "tle_line1": "1 15362U 84110A   25355.52066795  .00000082  00000+0  17525-3 0  9993",
        "tle_line2": "2 15362  90.1221  80.6381 0029980 306.6925  64.0147 13.23045611988158"
      },
      "geometry": {
        "type": "Point",
        "coordinates": [
          -99.39025796956552,
          -14.837639282595527
        ]
      }
    },
    {
      "type": "Feature",
      "properties": {
        "norad_id": 15935,
        "name": "OSCAR 30",
        "group": "nnss",
        "lat": -18.73941020437983,
        "lon": 100.05247446978306,
        "alt_km": 1098.4646587637553,
        "timestamp": "2025-12-21T20:41:08.230498+00:00",
        "meta_object_name": "OSCAR 30",
        "meta_object_id": "1985-066A",
        "meta_epoch": "2025-12-21T06:41:53.387232",
        "meta_mean_motion": 13.36079593,
        "meta_eccentricity": 0.016913,
        "meta_inclination": 90.1655,
        "meta_ra_of_asc_node": 99.9868,
        "meta_arg_of_pericenter": 60.0583,
        "meta_mean_anomaly": 1.5893,
        "meta_ephemeris_type": 0,
        "meta_classification_type": "U",
        "meta_norad_cat_id": 15935,
        "meta_element_set_no": 999,
        "meta_rev_at_epoch": 96567,
        "meta_bstar": 0.00014528,
        "meta_mean_motion_dot": 9.1e-07,
        "meta_mean_motion_ddot": 0,
        "tle_line1": "1 15935U 85066A   25355.27909013  .00000091  00000+0  14528-3 0  9991",
        "tle_line2": "2 15935  90.1655  99.9868 0169130  60.0583   1.5893 13.36079593965677"
      },
      "geometry": {
        "type": "Point",
        "coordinates": [
          100.05247446978306,
          -18.73941020437983
        ]
      }
    },
    {
      "type": "Feature",
      "properties": {
        "norad_id": 15936,
        "name": "OSCAR 24",
        "group": "nnss",
        "lat": 53.47812585621689,
        "lon": 92.22474047962967,
        "alt_km": 994.1287210789069,
        "timestamp": "2025-12-21T20:41:08.230508+00:00",
        "meta_object_name": "OSCAR 24",
        "meta_object_id": "1985-066B",
        "meta_epoch": "2025-12-21T13:17:30.278688",
        "meta_mean_motion": 13.35936927,
        "meta_eccentricity": 0.01702463,
        "meta_inclination": 90.1791,
        "meta_ra_of_asc_node": 92.4613,
        "meta_arg_of_pericenter": 65.7293,
        "meta_mean_anomaly": 307.3973,
        "meta_ephemeris_type": 0,
        "meta_classification_type": "U",
        "meta_norad_cat_id": 15936,
        "meta_element_set_no": 999,
        "meta_rev_at_epoch": 96761,
        "meta_bstar": 0.00013017137,
        "meta_mean_motion_dot": 8.2e-07,
        "meta_mean_motion_ddot": 0,
        "tle_line1": "1 15936U 85066B   25355.55382267  .00000082  00000+0  13017-3 0  9991",
        "tle_line2": "2 15936  90.1791  92.4613 0170246  65.7293 307.3973 13.35936927967619"
      },
      "geometry": {
        "type": "Point",
        "coordinates": [
          92.22474047962967,
          53.47812585621689
        ]
      }
    },
    {
      "type": "Feature",
      "properties": {
        "norad_id": 17070,
        "name": "POLAR BEAR",
        "group": "nnss",
        "lat": 80.64403322652957,
        "lon": 1.0816492033201695,
        "alt_km": 943.2714081232962,
        "timestamp": "2025-12-21T20:41:08.230517+00:00",
        "meta_object_name": "POLAR BEAR",
        "meta_object_id": "1986-088A",
        "meta_epoch": "2025-12-21T13:30:27.463104",
        "meta_mean_motion": 13.75252569,
        "meta_eccentricity": 0.00412874,
        "meta_inclination": 89.617,
        "meta_ra_of_asc_node": 183.4204,
        "meta_arg_of_pericenter": 93.8396,
        "meta_mean_anomaly": 325.6089,
        "meta_ephemeris_type": 0,
        "meta_classification_type": "U",
        "meta_norad_cat_id": 17070,
        "meta_element_set_no": 999,
        "meta_rev_at_epoch": 96100,
        "meta_bstar": 9.0606714e-05,
        "meta_mean_motion_dot": 9.9e-07,
        "meta_mean_motion_ddot": 0,
        "tle_line1": "1 17070U 86088A   25355.56281786  .00000099  00000+0  90607-4 0  9991",
        "tle_line2": "2 17070  89.6170 183.4204 0041287  93.8396 325.6089 13.75252569961004"
      },
      "geometry": {
        "type": "Point",
        "coordinates": [
          1.0816492033201695,
          80.64403322652957
        ]
      }
    },
    {
      "type": "Feature",
      "properties": {
        "norad_id": 18361,
        "name": "OSCAR 27",
        "group": "nnss",
        "lat": 80.53276358421795,
        "lon": 77.36938347499017,
        "alt_km": 1118.1979572438486,
        "timestamp": "2025-12-21T20:41:08.230527+00:00",
        "meta_object_name": "OSCAR 27",
        "meta_object_id": "1987-080A",
        "meta_epoch": "2025-12-21T11:21:05.959296",
        "meta_mean_motion": 13.44908381,
        "meta_eccentricity": 0.01036314,
        "meta_inclination": 90.3739,
        "meta_ra_of_asc_node": 79.599,
        "meta_arg_of_pericenter": 198.6192,
        "meta_mean_anomaly": 161.1154,
        "meta_ephemeris_type": 0,
        "meta_classification_type": "U",
        "meta_norad_cat_id": 18361,
        "meta_element_set_no": 999,
        "meta_rev_at_epoch": 87674,
        "meta_bstar": 0.00016373075,
        "meta_mean_motion_dot": 1.07e-06,
        "meta_mean_motion_ddot": 0,
        "tle_line1": "1 18361U 87080A   25355.47298564  .00000107  00000+0  16373-3 0  9997",
        "tle_line2": "2 18361  90.3739  79.5990 0103631 198.6192 161.1154 13.44908381876743"
      },
      "geometry": {
        "type": "Point",
        "coordinates": [
          77.36938347499017,
          80.53276358421795
        ]
      }
    },
    {
      "type": "Feature",
      "properties": {
        "norad_id": 18362,
        "name": "OSCAR 29",
        "group": "nnss",
        "lat": 78.02343029670912,
        "lon": 78.30354651883084,
        "alt_km": 1147.3487597192097,
        "timestamp": "2025-12-21T20:41:08.230536+00:00",
        "meta_object_name": "OSCAR 29",
        "meta_object_id": "1987-080B",
        "meta_epoch": "2025-12-21T11:25:06.788064",
        "meta_mean_motion": 13.44449927,
        "meta_eccentricity": 0.01044707,
        "meta_inclination": 90.3751,
        "meta_ra_of_asc_node": 80.0587,
        "meta_arg_of_pericenter": 221.8489,
        "meta_mean_anomaly": 149.171,
        "meta_ephemeris_type": 0,
        "meta_classification_type": "U",
        "meta_norad_cat_id": 18362,
        "meta_element_set_no": 999,
        "meta_rev_at_epoch": 87627,
        "meta_bstar": 0.00015543419,
        "meta_mean_motion_dot": 1.01e-06,
        "meta_mean_motion_ddot": 0,
        "tle_line1": "1 18362U 87080B   25355.47577301  .00000101  00000+0  15543-3 0  9999",
        "tle_line2": "2 18362  90.3751  80.0587 0104470 221.8489 149.1710 13.44449927876275"
      },
      "geometry": {
        "type": "Point",
        "coordinates": [
          78.30354651883084,
          78.02343029670912
        ]
      }
    },
    {
      "type": "Feature",
      "properties": {
        "norad_id": 19070,
        "name": "OSCAR 23",
        "group": "nnss",
        "lat": 25.908089797502132,
        "lon": 16.519439781593313,
        "alt_km": 1241.9452804924304,
        "timestamp": "2025-12-21T20:41:08.230546+00:00",
        "meta_object_name": "OSCAR 23",
        "meta_object_id": "1988-033A",
        "meta_epoch": "2025-12-21T12:06:05.436576",
        "meta_mean_motion": 13.27788556,
        "meta_eccentricity": 0.01902426,
        "meta_inclination": 90.3203,
        "meta_ra_of_asc_node": 16.664,
        "meta_arg_of_pericenter": 155.5953,
        "meta_mean_anomaly": 323.4425,
        "meta_ephemeris_type": 0,
        "meta_classification_type": "U",
        "meta_norad_cat_id": 19070,
        "meta_element_set_no": 999,
        "meta_rev_at_epoch": 82369,
        "meta_bstar": 0.0001193184,
        "meta_mean_motion_dot": 6.9e-07,
        "meta_mean_motion_ddot": 0,
        "tle_line1": "1 19070U 88033A   25355.50422959  .00000069  00000+0  11932-3 0  9998",
        "tle_line2": "2 19070  90.3203  16.6640 0190242 155.5953 323.4425 13.27788556823693"
      },
      "geometry": {
        "type": "Point",
        "coordinates": [
          16.519439781593313,
          25.908089797502132
        ]
      }
    }
  ]
}